COSMOS 2425 (716)       
1 29670U 06062A   21081.22386670  .00000077  00000-0  00000-0 0  9998
2 29670  64.8691 258.3940 0024536 349.4483 197.9468  2.13113742110815
COSMOS 2433 (720)       
1 32275U 07052A   21086.59527726 -.00000057  00000-0  00000+0 0  9995
2 32275  66.0488  19.5030 0004072 280.9571 244.8556  2.13104210104447
COSMOS 2432 (719)       
1 32276U 07052B   21085.32409513 -.00000057  00000-0  00000-0 0  9990
2 32276  66.0608  19.6392 0012130 327.6399 252.4403  2.13103604104414
COSMOS 2434 (721)       
1 32393U 07065A   21086.25979031  .00000045  00000-0  00000+0 0  9999
2 32393  64.4870 256.7206 0005047  79.6664  76.9256  2.13103037103147
COSMOS 2436 (723)       
1 32395U 07065C   21086.14273602  .00000046  00000-0  00000+0 0  9991
2 32395  64.4914 256.7767 0015868   7.9391 194.9825  2.13102969103071
COSMOS 2456 (730)       
1 36111U 09070A   21086.16886149  .00000075  00000-0  00000+0 0  9999
2 36111  64.2621 136.4042 0004846 307.6225 310.8403  2.13099172 87808
COSMOS 2457 (733)       
1 36112U 09070B   21086.50551465  .00000076  00000-0  00000+0 0  9999
2 36112  64.2445 136.2798 0004919 182.4682  97.9909  2.13101427 87818
COSMOS 2459 (731)       
1 36400U 10007A   21086.12561799 -.00000057  00000-0  00000+0 0  9990
2 36400  65.9466  18.4543 0026967 347.2686  34.5633  2.13105026 86156
COSMOS 2461 (735)       
1 36401U 10007B   21086.11382054 -.00000057  00000-0  00000+0 0  9995
2 36401  65.9427  18.4189 0021547   3.2723  11.2092  2.13103875 86162
COSMOS 2460 (732)       
1 36402U 10007C   21086.14910986 -.00000057  00000-0  00000+0 0  9990
2 36402  65.9306  18.3762 0002044 328.0989  17.4419  2.13106571 86154
COSMOS 2464 (736)       
1 37139U 10041C   21085.85480637  .00000046  00000-0  00000-0 0  9996
2 37139  64.0885 256.0328 0028981  14.4124  53.0221  2.13100728 82216
COSMOS 2471 (701K)      
1 37372U 11009A   21085.83855933 -.00000058  00000-0  00000-0 0  9997
2 37372  65.9273  18.3207 0011328 228.6539  40.1342  2.13081762 78422
COSMOS 2476 (744)       
1 37867U 11064A   21085.88971076  .00000073  00000-0  00000+0 0  9994
2 37867  64.5573 137.5948 0021380 239.0246  66.9334  2.13101858 73145
COSMOS 2477 (745)       
1 37868U 11064B   21086.10018676  .00000074  00000-0  00000+0 0  9990
2 37868  64.5660 137.6482 0018810 240.5832  45.2082  2.13101709 73100
COSMOS 2475 (743)       
1 37869U 11064C   21086.16137028  .00000075  00000-0  00000+0 0  9991
2 37869  64.5724 137.6487 0022979 259.6122  30.7305  2.13101835 73119
COSMOS 2485 (747)       
1 39155U 13019A   21085.82569611  .00000073  00000-0  00000+0 0  9990
2 39155  64.7239 137.9275 0021767 234.7735  66.5613  2.13101836 61610
COSMOS 2492 (754)       
1 39620U 14012A   21085.66069119 -.00000058  00000-0  00000+0 0  9995
2 39620  65.8188  18.1358 0015252 324.4156 245.2282  2.13103263 54560
COSMOS 2500 (755)       
1 40001U 14032A   21085.39122476 -.00000058  00000-0  00000-0 0  9999
2 40001  65.7588  18.0401 0005564 223.4952 359.2580  2.13102599 52772
COSMOS 2501 (702K)      
1 40315U 14075A   21086.06205528  .00000045  00000-0  00000+0 0  9993
2 40315  63.7967 256.8640 0015808 206.3695 337.0518  2.13101360 49194
COSMOS 2514 (751)       
1 41330U 16008A   21086.58450296 -.00000058  00000-0  00000+0 0  9995
2 41330  65.5612  17.8020 0009259 225.7248  15.4531  2.13103020 39969
COSMOS 2516 (753)       
1 41554U 16032A   21086.11931127  .00000045  00000-0  00000+0 0  9991
2 41554  64.0215 257.0123 0011430 212.2672 285.4709  2.13106770 37563
COSMOS 2522 (752)       
1 42939U 17055A   21086.26889447  .00000045  00000-0  00000+0 0  9998
2 42939  64.2549 257.2709 0004978 248.1063 229.0004  2.13101936 27320
COSMOS 2527 (756)       
1 43508U 18053A   21086.14463075  .00000075  00000-0  00000+0 0  9995
2 43508  64.8890 137.8246 0008633 236.3490 177.4567  2.13102625 21614
COSMOS 2529 (757)       
1 43687U 18086A   21086.40994641  .00000044  00000-0  00000+0 0  9992
2 43687  64.4669 257.4620 0007553 278.5326 262.3359  2.13102078 18636
COSMOS 2534 (758)       
1 44299U 19030A   21086.18716885  .00000046  00000-0  00000+0 0  9991
2 44299  64.5393 257.3125 0011108 298.8499 205.9834  2.13101994 14270
COSMOS 2544 (759)       
1 44850U 19088A   21086.37230932  .00000076  00000-0  00000+0 0  9995
2 44850  64.8728 137.6773 0012941 263.9047   8.3999  2.13102386 10050
COSMOS 2545 (760)       
1 45358U 20018A   21085.49742728 -.00000059  00000-0  00000-0 0  9990
2 45358  64.8921  18.8162 0009907 262.2524 268.9959  2.13102779  7985
